CCSDS_OMM_VERS = 2.0
CREATION_DATE  = 
ORIGINATOR     = 

OBJECT_NAME    = STARLINK-36746
OBJECT_ID      = 2026-026N
CENTER_NAME    = EARTH
REF_FRAME      = TEME
TIME_SYSTEM    = UTC
MEAN_ELEMENT_THEORY = SGP/SGP4

EPOCH          = 2026-03-03T18:00:01.999296
MEAN_MOTION    = 15.53654803
ECCENTRICITY   = .0001937
INCLINATION    = 97.2839
RA_OF_ASC_NODE = 117.0350
ARG_OF_PERICENTER = 80.7404
MEAN_ANOMALY   = 115.6851

EPHEMERIS_TYPE = 0
CLASSIFICATION_TYPE = U
NORAD_CAT_ID   = 67733
ELEMENT_SET_NO = 999
REV_AT_EPOCH   = 435
BSTAR          = -.3421E-1
MEAN_MOTION_DOT = -.1922528E-1
MEAN_MOTION_DDOT = 0

CCSDS_OMM_VERS = 2.0
CREATION_DATE  = 
ORIGINATOR     = 

OBJECT_NAME    = STARLINK-36749
OBJECT_ID      = 2026-026P
CENTER_NAME    = EARTH
REF_FRAME      = TEME
TIME_SYSTEM    = UTC
MEAN_ELEMENT_THEORY = SGP/SGP4

EPOCH          = 2026-03-03T18:00:01.999296
MEAN_MOTION    = 15.67569336
ECCENTRICITY   = .0001745
INCLINATION    = 97.2840
RA_OF_ASC_NODE = 117.1375
ARG_OF_PERICENTER = 73.7657
MEAN_ANOMALY   = 9.6437

EPHEMERIS_TYPE = 0
CLASSIFICATION_TYPE = U
NORAD_CAT_ID   = 67734
ELEMENT_SET_NO = 999
REV_AT_EPOCH   = 435
BSTAR          = -.20975E-1
MEAN_MOTION_DOT = -.2005569E-1
MEAN_MOTION_DDOT = 0

CCSDS_OMM_VERS = 2.0
CREATION_DATE  = 
ORIGINATOR     = 

OBJECT_NAME    = STARLINK-36691
OBJECT_ID      = 2026-026Q
CENTER_NAME    = EARTH
REF_FRAME      = TEME
TIME_SYSTEM    = UTC
MEAN_ELEMENT_THEORY = SGP/SGP4

EPOCH          = 2026-03-03T18:00:01.999296
MEAN_MOTION    = 15.74672685
ECCENTRICITY   = .0001874
INCLINATION    = 97.2841
RA_OF_ASC_NODE = 117.1678
ARG_OF_PERICENTER = 82.5014
MEAN_ANOMALY   = 79.5148

EPHEMERIS_TYPE = 0
CLASSIFICATION_TYPE = U
NORAD_CAT_ID   = 67735
ELEMENT_SET_NO = 999
REV_AT_EPOCH   = 449
BSTAR          = -.15598E-1
MEAN_MOTION_DOT = -.1970692E-1
MEAN_MOTION_DDOT = 0

CCSDS_OMM_VERS = 2.0
CREATION_DATE  = 
ORIGINATOR     = 

OBJECT_NAME    = STARLINK-36317
OBJECT_ID      = 2026-026R
CENTER_NAME    = EARTH
REF_FRAME      = TEME
TIME_SYSTEM    = UTC
MEAN_ELEMENT_THEORY = SGP/SGP4

EPOCH          = 2026-03-03T18:00:01.999296
MEAN_MOTION    = 15.74420386
ECCENTRICITY   = .0001864
INCLINATION    = 97.2841
RA_OF_ASC_NODE = 117.1629
ARG_OF_PERICENTER = 78.8944
MEAN_ANOMALY   = 72.2684

EPHEMERIS_TYPE = 0
CLASSIFICATION_TYPE = U
NORAD_CAT_ID   = 67736
ELEMENT_SET_NO = 999
REV_AT_EPOCH   = 435
BSTAR          = -.15786E-1
MEAN_MOTION_DOT = -.1972406E-1
MEAN_MOTION_DDOT = 0

CCSDS_OMM_VERS = 2.0
CREATION_DATE  = 
ORIGINATOR     = 

OBJECT_NAME    = STARLINK-36330
OBJECT_ID      = 2026-026S
CENTER_NAME    = EARTH
REF_FRAME      = TEME
TIME_SYSTEM    = UTC
MEAN_ELEMENT_THEORY = SGP/SGP4

EPOCH          = 2026-03-03T18:00:01.999296
MEAN_MOTION    = 15.74773992
ECCENTRICITY   = .0001895
INCLINATION    = 97.2842
RA_OF_ASC_NODE = 117.1699
ARG_OF_PERICENTER = 85.6924
MEAN_ANOMALY   = 83.0737

EPHEMERIS_TYPE = 0
CLASSIFICATION_TYPE = U
NORAD_CAT_ID   = 67737
ELEMENT_SET_NO = 999
REV_AT_EPOCH   = 435
BSTAR          = -.15559E-1
MEAN_MOTION_DOT = -.1973998E-1
MEAN_MOTION_DDOT = 0

CCSDS_OMM_VERS = 2.0
CREATION_DATE  = 
ORIGINATOR     = 

OBJECT_NAME    = STARLINK-36327
OBJECT_ID      = 2026-026T
CENTER_NAME    = EARTH
REF_FRAME      = TEME
TIME_SYSTEM    = UTC
MEAN_ELEMENT_THEORY = SGP/SGP4

EPOCH          = 2026-03-03T18:00:01.999296
MEAN_MOTION    = 15.75066277
ECCENTRICITY   = .0001809
INCLINATION    = 97.2842
RA_OF_ASC_NODE = 117.1740
ARG_OF_PERICENTER = 86.7801
MEAN_ANOMALY   = 91.4536

EPHEMERIS_TYPE = 0
CLASSIFICATION_TYPE = U
NORAD_CAT_ID   = 67738
ELEMENT_SET_NO = 999
REV_AT_EPOCH   = 435
BSTAR          = -.15366E-1
MEAN_MOTION_DOT = -.1974495E-1
MEAN_MOTION_DDOT = 0

CCSDS_OMM_VERS = 2.0
CREATION_DATE  = 
ORIGINATOR     = 

OBJECT_NAME    = STARLINK-36329
OBJECT_ID      = 2026-026U
CENTER_NAME    = EARTH
REF_FRAME      = TEME
TIME_SYSTEM    = UTC
MEAN_ELEMENT_THEORY = SGP/SGP4

EPOCH          = 2026-03-03T18:00:01.999296
MEAN_MOTION    = 15.76093819
ECCENTRICITY   = .0001811
INCLINATION    = 97.2855
RA_OF_ASC_NODE = 117.1915
ARG_OF_PERICENTER = 90.2765
MEAN_ANOMALY   = 140.7677

EPHEMERIS_TYPE = 0
CLASSIFICATION_TYPE = U
NORAD_CAT_ID   = 67739
ELEMENT_SET_NO = 999
REV_AT_EPOCH   = 435
BSTAR          = -.14605E-1
MEAN_MOTION_DOT = -.1965117E-1
MEAN_MOTION_DDOT = 0

CCSDS_OMM_VERS = 2.0
CREATION_DATE  = 
ORIGINATOR     = 

OBJECT_NAME    = STARLINK-36737
OBJECT_ID      = 2026-026V
CENTER_NAME    = EARTH
REF_FRAME      = TEME
TIME_SYSTEM    = UTC
MEAN_ELEMENT_THEORY = SGP/SGP4

EPOCH          = 2026-03-03T18:00:01.999296
MEAN_MOTION    = 15.75218267
ECCENTRICITY   = .0001856
INCLINATION    = 97.2842
RA_OF_ASC_NODE = 117.1765
ARG_OF_PERICENTER = 86.5463
MEAN_ANOMALY   = 101.1980

EPHEMERIS_TYPE = 0
CLASSIFICATION_TYPE = U
NORAD_CAT_ID   = 67740
ELEMENT_SET_NO = 999
REV_AT_EPOCH   = 435
BSTAR          = -.15239E-1
MEAN_MOTION_DOT = -.197179E-1
MEAN_MOTION_DDOT = 0

CCSDS_OMM_VERS = 2.0
CREATION_DATE  = 
ORIGINATOR     = 

OBJECT_NAME    = STARLINK-36740
OBJECT_ID      = 2026-026W
CENTER_NAME    = EARTH
REF_FRAME      = TEME
TIME_SYSTEM    = UTC
MEAN_ELEMENT_THEORY = SGP/SGP4

EPOCH          = 2026-03-03T18:00:01.999296
MEAN_MOTION    = 15.70952134
ECCENTRICITY   = .0001913
INCLINATION    = 97.2846
RA_OF_ASC_NODE = 117.1788
ARG_OF_PERICENTER = 86.6939
MEAN_ANOMALY   = 101.6771

EPHEMERIS_TYPE = 0
CLASSIFICATION_TYPE = U
NORAD_CAT_ID   = 67741
ELEMENT_SET_NO = 999
REV_AT_EPOCH   = 435
BSTAR          = -.18221E-1
MEAN_MOTION_DOT = -.2004932E-1
MEAN_MOTION_DDOT = 0

CCSDS_OMM_VERS = 2.0
CREATION_DATE  = 
ORIGINATOR     = 

OBJECT_NAME    = STARLINK-36693
OBJECT_ID      = 2026-026X
CENTER_NAME    = EARTH
REF_FRAME      = TEME
TIME_SYSTEM    = UTC
MEAN_ELEMENT_THEORY = SGP/SGP4

EPOCH          = 2026-03-03T18:00:01.999296
MEAN_MOTION    = 15.71622766
ECCENTRICITY   = .0001888
INCLINATION    = 97.2843
RA_OF_ASC_NODE = 117.1725
ARG_OF_PERICENTER = 85.1471
MEAN_ANOMALY   = 86.3678

EPHEMERIS_TYPE = 0
CLASSIFICATION_TYPE = U
NORAD_CAT_ID   = 67742
ELEMENT_SET_NO = 999
REV_AT_EPOCH   = 449
BSTAR          = -.17752E-1
MEAN_MOTION_DOT = -.2008907E-1
MEAN_MOTION_DDOT = 0

CCSDS_OMM_VERS = 2.0
CREATION_DATE  = 
ORIGINATOR     = 

OBJECT_NAME    = STARLINK-36717
OBJECT_ID      = 2026-026Y
CENTER_NAME    = EARTH
REF_FRAME      = TEME
TIME_SYSTEM    = UTC
MEAN_ELEMENT_THEORY = SGP/SGP4

EPOCH          = 2026-03-03T18:00:01.999296
MEAN_MOTION    = 15.73728960
ECCENTRICITY   = .0001812
INCLINATION    = 97.2846
RA_OF_ASC_NODE = 117.1830
ARG_OF_PERICENTER = 88.6510
MEAN_ANOMALY   = 113.3026

EPHEMERIS_TYPE = 0
CLASSIFICATION_TYPE = U
NORAD_CAT_ID   = 67743
ELEMENT_SET_NO = 999
REV_AT_EPOCH   = 449
BSTAR          = -.16221E-1
MEAN_MOTION_DOT = -.1967514E-1
MEAN_MOTION_DDOT = 0

CCSDS_OMM_VERS = 2.0
CREATION_DATE  = 
ORIGINATOR     = 

OBJECT_NAME    = STARLINK-36692
OBJECT_ID      = 2026-026Z
CENTER_NAME    = EARTH
REF_FRAME      = TEME
TIME_SYSTEM    = UTC
MEAN_ELEMENT_THEORY = SGP/SGP4

EPOCH          = 2026-03-03T18:00:01.999296
MEAN_MOTION    = 15.72487315
ECCENTRICITY   = .0001873
INCLINATION    = 97.2844
RA_OF_ASC_NODE = 117.1774
ARG_OF_PERICENTER = 85.4403
MEAN_ANOMALY   = 100.9593

EPHEMERIS_TYPE = 0
CLASSIFICATION_TYPE = U
NORAD_CAT_ID   = 67744
ELEMENT_SET_NO = 999
REV_AT_EPOCH   = 435
BSTAR          = -.1711E-1
MEAN_MOTION_DOT = -.2008821E-1
MEAN_MOTION_DDOT = 0

